{"fetched_at":"2026-07-06T08:47:30.308Z","source":"https://celestrak.org/NORAD/elements/gp.php?NAME=WORLDVIEW&FORMAT=JSON","constellation":"worldview","records":[{"OBJECT_NAME":"WORLDVIEW-1 (WV-1)","OBJECT_ID":"2007-041A","EPOCH":"2026-07-05T09:49:50.033568","CLASSIFICATION_TYPE":"U","MEAN_MOTION":15.2448151,"ECCENTRICITY":0.0000923,"INCLINATION":97.3895,"RA_OF_ASC_NODE":305.8954,"ARG_OF_PERICENTER":277.7721,"MEAN_ANOMALY":82.3412,"EPHEMERIS_TYPE":0,"NORAD_CAT_ID":32060,"ELEMENT_SET_NO":999,"REV_AT_EPOCH":4565,"BSTAR":0.00037871,"MEAN_MOTION_DOT":0.00009238,"MEAN_MOTION_DDOT":0},{"OBJECT_NAME":"WORLDVIEW-2 (WV-2)","OBJECT_ID":"2009-055A","EPOCH":"2026-07-05T09:29:15.284256","CLASSIFICATION_TYPE":"U","MEAN_MOTION":14.37905255,"ECCENTRICITY":0.0004848,"INCLINATION":98.476,"RA_OF_ASC_NODE":259.5965,"ARG_OF_PERICENTER":154.2669,"MEAN_ANOMALY":205.876,"EPHEMERIS_TYPE":0,"NORAD_CAT_ID":35946,"ELEMENT_SET_NO":999,"REV_AT_EPOCH":87826,"BSTAR":0.000076319,"MEAN_MOTION_DOT":0.00000187,"MEAN_MOTION_DDOT":0},{"OBJECT_NAME":"WORLDVIEW-3 (WV-3)","OBJECT_ID":"2014-048A","EPOCH":"2026-07-05T10:15:15.194880","CLASSIFICATION_TYPE":"U","MEAN_MOTION":14.85054576,"ECCENTRICITY":0.0000508,"INCLINATION":97.856,"RA_OF_ASC_NODE":261.008,"ARG_OF_PERICENTER":167.0322,"MEAN_ANOMALY":193.0906,"EPHEMERIS_TYPE":0,"NORAD_CAT_ID":40115,"ELEMENT_SET_NO":999,"REV_AT_EPOCH":64461,"BSTAR":0.00014322,"MEAN_MOTION_DOT":0.0000117,"MEAN_MOTION_DDOT":0}]}
